{
  "type": "FeatureCollection",
  "features": [
    {
      "type": "Feature",
      "properties": {
        "norad_id": 66524,
        "name": "STARLINK-35687",
        "group": "last-30-days",
        "lat": 13.790624771050334,
        "lon": 89.73913986289392,
        "alt_km": 404.1821676332074,
        "timestamp": "2025-12-09T05:43:19.509276+00:00",
        "meta_object_name": "STARLINK-35687",
        "meta_object_id": "2025-265J",
        "meta_epoch": "2025-12-08T20:00:01.999008",
        "meta_mean_motion": 15.55361679,
        "meta_eccentricity": 0.0001431,
        "meta_inclination": 43.0003,
        "meta_ra_of_asc_node": 76.8509,
        "meta_arg_of_pericenter": 278.3536,
        "meta_mean_anomaly": 352.7037,
        "meta_ephemeris_type": 0,
        "meta_classification_type": "U",
        "meta_norad_cat_id": 66524,
        "meta_element_set_no": 999,
        "meta_rev_at_epoch": 436,
        "meta_bstar": -0.033145,
        "meta_mean_motion_dot": -0.02061769,
        "meta_mean_motion_ddot": 0,
        "tle_line1": "1 66524U 25265J   25342.83335647 -.02061769  00000+0 -33145-1 0  9997",
        "tle_line2": "2 66524  43.0003  76.8509 0001431 278.3536 352.7037 15.55361679  4361"
      },
      "geometry": {
        "type": "Point",
        "coordinates": [
          89.73913986289392,
          13.790624771050334
        ]
      }
    },
    {
      "type": "Feature",
      "properties": {
        "norad_id": 66525,
        "name": "STARLINK-35975",
        "group": "last-30-days",
        "lat": 15.049253511800451,
        "lon": 91.23260861345203,
        "alt_km": 404.14697505705044,
        "timestamp": "2025-12-09T05:43:19.509285+00:00",
        "meta_object_name": "STARLINK-35975",
        "meta_object_id": "2025-265K",
        "meta_epoch": "2025-12-08T20:00:01.999008",
        "meta_mean_motion": 15.5536423,
        "meta_eccentricity": 0.0001435,
        "meta_inclination": 43.0003,
        "meta_ra_of_asc_node": 76.8461,
        "meta_arg_of_pericenter": 273.5714,
        "meta_mean_anomaly": 359.4055,
        "meta_ephemeris_type": 0,
        "meta_classification_type": "U",
        "meta_norad_cat_id": 66525,
        "meta_element_set_no": 999,
        "meta_rev_at_epoch": 436,
        "meta_bstar": -0.033227,
        "meta_mean_motion_dot": -0.020665,
        "meta_mean_motion_ddot": 0,
        "tle_line1": "1 66525U 25265K   25342.83335647 -.02066500  00000+0 -33227-1 0  9997",
        "tle_line2": "2 66525  43.0003  76.8461 0001435 273.5714 359.4055 15.55364230  4368"
      },
      "geometry": {
        "type": "Point",
        "coordinates": [
          91.23260861345203,
          15.049253511800451
        ]
      }
    },
    {
      "type": "Feature",
      "properties": {
        "norad_id": 66526,
        "name": "STARLINK-35932",
        "group": "last-30-days",
        "lat": 16.295388546372337,
        "lon": 92.7409811992044,
        "alt_km": 403.8636834705585,
        "timestamp": "2025-12-09T05:43:19.509304+00:00",
        "meta_object_name": "STARLINK-35932",
        "meta_object_id": "2025-265L",
        "meta_epoch": "2025-12-08T20:00:01.999008",
        "meta_mean_motion": 15.5536169,
        "meta_eccentricity": 0.0001502,
        "meta_inclination": 43.0003,
        "meta_ra_of_asc_node": 76.8416,
        "meta_arg_of_pericenter": 279.422,
        "meta_mean_anomaly": 355.4706,
        "meta_ephemeris_type": 0,
        "meta_classification_type": "U",
        "meta_norad_cat_id": 66526,
        "meta_element_set_no": 999,
        "meta_rev_at_epoch": 425,
        "meta_bstar": -0.033165,
        "meta_mean_motion_dot": -0.02062973,
        "meta_mean_motion_ddot": 0,
        "tle_line1": "1 66526U 25265L   25342.83335647 -.02062973  00000+0 -33165-1 0  9999",
        "tle_line2": "2 66526  43.0003  76.8416 0001502 279.4220 355.4706 15.55361690  4255"
      },
      "geometry": {
        "type": "Point",
        "coordinates": [
          92.7409811992044,
          16.295388546372337
        ]
      }
    },
    {
      "type": "Feature",
      "properties": {
        "norad_id": 66527,
        "name": "STARLINK-35935",
        "group": "last-30-days",
        "lat": 17.531664901537006,
        "lon": 94.26959176333263,
        "alt_km": 403.87285047621845,
        "timestamp": "2025-12-09T05:43:19.509314+00:00",
        "meta_object_name": "STARLINK-35935",
        "meta_object_id": "2025-265M",
        "meta_epoch": "2025-12-08T20:00:01.999008",
        "meta_mean_motion": 15.55363805,
        "meta_eccentricity": 0.0001386,
        "meta_inclination": 43.0002,
        "meta_ra_of_asc_node": 76.8367,
        "meta_arg_of_pericenter": 271.2048,
        "meta_mean_anomaly": 5.6054,
        "meta_ephemeris_type": 0,
        "meta_classification_type": "U",
        "meta_norad_cat_id": 66527,
        "meta_element_set_no": 999,
        "meta_rev_at_epoch": 436,
        "meta_bstar": -0.033195,
        "meta_mean_motion_dot": -0.02064685,
        "meta_mean_motion_ddot": 0,
        "tle_line1": "1 66527U 25265M   25342.83335647 -.02064685  00000+0 -33195-1 0  9995",
        "tle_line2": "2 66527  43.0002  76.8367 0001386 271.2048   5.6054 15.55363805  4360"
      },
      "geometry": {
        "type": "Point",
        "coordinates": [
          94.26959176333263,
          17.531664901537006
        ]
      }
    },
    {
      "type": "Feature",
      "properties": {
        "norad_id": 66528,
        "name": "STARLINK-35928",
        "group": "last-30-days",
        "lat": 18.75575582476003,
        "lon": 95.81893832671952,
        "alt_km": 403.59190377341474,
        "timestamp": "2025-12-09T05:43:19.509325+00:00",
        "meta_object_name": "STARLINK-35928",
        "meta_object_id": "2025-265N",
        "meta_epoch": "2025-12-08T20:00:01.999008",
        "meta_mean_motion": 15.55364299,
        "meta_eccentricity": 0.0001466,
        "meta_inclination": 43.0004,
        "meta_ra_of_asc_node": 76.8321,
        "meta_arg_of_pericenter": 277.6296,
        "meta_mean_anomaly": 1.0957,
        "meta_ephemeris_type": 0,
        "meta_classification_type": "U",
        "meta_norad_cat_id": 66528,
        "meta_element_set_no": 999,
        "meta_rev_at_epoch": 436,
        "meta_bstar": -0.03321,
        "meta_mean_motion_dot": -0.02065606,
        "meta_mean_motion_ddot": 0,
        "tle_line1": "1 66528U 25265N   25342.83335647 -.02065606  00000+0 -33210-1 0  9998",
        "tle_line2": "2 66528  43.0004  76.8321 0001466 277.6296   1.0957 15.55364299  4367"
      },
      "geometry": {
        "type": "Point",
        "coordinates": [
          95.81893832671952,
          18.75575582476003
        ]
      }
    },
    {
      "type": "Feature",
      "properties": {
        "norad_id": 66529,
        "name": "STARLINK-35933",
        "group": "last-30-days",
        "lat": 19.967471602219497,
        "lon": 97.3913443516709,
        "alt_km": 403.5172546975318,
        "timestamp": "2025-12-09T05:43:19.509334+00:00",
        "meta_object_name": "STARLINK-35933",
        "meta_object_id": "2025-265P",
        "meta_epoch": "2025-12-08T20:00:01.999008",
        "meta_mean_motion": 15.55363795,
        "meta_eccentricity": 0.0001494,
        "meta_inclination": 43.0003,
        "meta_ra_of_asc_node": 76.8269,
        "meta_arg_of_pericenter": 274.5304,
        "meta_mean_anomaly": 6.1123,
        "meta_ephemeris_type": 0,
        "meta_classification_type": "U",
        "meta_norad_cat_id": 66529,
        "meta_element_set_no": 999,
        "meta_rev_at_epoch": 436,
        "meta_bstar": -0.033178,
        "meta_mean_motion_dot": -0.02063827,
        "meta_mean_motion_ddot": 0,
        "tle_line1": "1 66529U 25265P   25342.83335647 -.02063827  00000+0 -33178-1 0  9995",
        "tle_line2": "2 66529  43.0003  76.8269 0001494 274.5304   6.1123 15.55363795  4366"
      },
      "geometry": {
        "type": "Point",
        "coordinates": [
          97.3913443516709,
          19.967471602219497
        ]
      }
    },
    {
      "type": "Feature",
      "properties": {
        "norad_id": 66530,
        "name": "STARLINK-35961",
        "group": "last-30-days",
        "lat": 21.16445989791192,
        "lon": 98.98790391624033,
        "alt_km": 403.2789807992567,
        "timestamp": "2025-12-09T05:43:19.509345+00:00",
        "meta_object_name": "STARLINK-35961",
        "meta_object_id": "2025-265Q",
        "meta_epoch": "2025-12-08T20:00:01.999008",
        "meta_mean_motion": 15.55363027,
        "meta_eccentricity": 0.0001528,
        "meta_inclination": 43.0004,
        "meta_ra_of_asc_node": 76.8225,
        "meta_arg_of_pericenter": 278.7127,
        "meta_mean_anomaly": 3.8474,
        "meta_ephemeris_type": 0,
        "meta_classification_type": "U",
        "meta_norad_cat_id": 66530,
        "meta_element_set_no": 999,
        "meta_rev_at_epoch": 436,
        "meta_bstar": -0.033188,
        "meta_mean_motion_dot": -0.02064314,
        "meta_mean_motion_ddot": 0,
        "tle_line1": "1 66530U 25265Q   25342.83335647 -.02064314  00000+0 -33188-1 0  9990",
        "tle_line2": "2 66530  43.0004  76.8225 0001528 278.7127   3.8474 15.55363027  4369"
      },
      "geometry": {
        "type": "Point",
        "coordinates": [
          98.98790391624033,
          21.16445989791192
        ]
      }
    }
  ]
}